IRIDIUM 921             
1 24873U 97034E   24150.46157300  .00022876  00000+0  60564-3 0  9993
2 24873  86.3800 297.3804 0002575 334.0632  26.0492 15.38244482472584
IRIDIUM 26              
1 24903U 97043A   24149.82317441  .00000561  00000+0  18494-3 0  9991
2 24903  86.3945 271.8789 0001915  90.8920 269.2496 14.36376373401557
IRIDIUM 22              
1 24907U 97043E   24149.86385795  .00000537  00000+0  18071-3 0  9990
2 24907  86.3947 275.0852 0002147  92.3221 267.8221 14.35265544401634
DUMMY MASS 1            
1 24925U 97048A   24150.47568632  .00000553  00000+0  59677-4 0  9993
2 24925  86.3320 312.6393 0009017  72.5154 287.7055 14.86218591448368
DUMMY MASS 2            
1 24926U 97048B   24150.50927264  .00000608  00000+0  66363-4 0  9999
2 24926  86.3321 314.1638 0009927  80.4244 279.8102 14.85976895448156
IRIDIUM 29              
1 24944U 97051A   24149.94245045  .00000530  00000+0  17684-3 0  9994
2 24944  86.3929 304.9761 0002337  88.6361 271.5103 14.35712809398121
IRIDIUM 33              
1 24946U 97051C   24149.95113131  .00000417  00000+0  14150-3 0  9996
2 24946  86.3844 304.2249 0005935 246.4405 113.6167 14.34369225397655
IRIDIUM 28              
1 24948U 97051E   24149.88946403  .00000548  00000+0  17953-3 0  9995
2 24948  86.3934 302.7325 0001676  91.5566 268.5823 14.36665383398656
